{"type": "FeatureCollection", "features": [{"type": "Feature", "properties": {"name": "Hyde Park \u2014 adjoining parcel (verify)", "owner": "GREENE COUNTY CONSERVATION COMM", "parcelId": "0504200008"}, "geometry": {"type": "Polygon", "coordinates": [[[-94.5715, 42.11493], [-94.5715, 42.11433], [-94.57767, 42.11436], [-94.57738, 42.11496], [-94.5715, 42.11493]]]}}, {"type": "Feature", "properties": {"name": "Conservation parcel 0504400003", "owner": "GREENE COUNTY CONSERVATION", "parcelId": "0504400003"}, "geometry": {"type": "Polygon", "coordinates": [[[-94.5762, 42.11435], [-94.57625, 42.11072], [-94.57759, 42.11073], [-94.57687, 42.11239], [-94.57684, 42.11308], [-94.57734, 42.11365], [-94.57767, 42.11436], [-94.5762, 42.11435]]]}}, {"type": "Feature", "properties": {"name": "Hyde Park", "owner": "GREENE COUNTY CONSERVATION", "parcelId": "0504400004"}, "geometry": {"type": "Polygon", "coordinates": [[[-94.5715, 42.11433], [-94.57159, 42.1107], [-94.57625, 42.11072], [-94.5762, 42.11435], [-94.5715, 42.11433]]]}}, {"type": "Feature", "properties": {"name": "Conservation parcel 0504400006", "owner": "GREENE COUNTY CONSERVATION", "parcelId": "0504400006"}, "geometry": {"type": "Polygon", "coordinates": [[[-94.57559, 42.11072], [-94.57562, 42.10896], [-94.57696, 42.10933], [-94.57624, 42.11072], [-94.57559, 42.11072]]]}}, {"type": "Feature", "properties": {"name": "Horseshoe Bend Wildlife Area \u2014 adjoining parcel (verify)", "owner": "GREENE COUNTY CONSERVATION COMM", "parcelId": "0505300004"}, "geometry": {"type": "Polygon", "coordinates": [[[-94.6005, 42.11435], [-94.60063, 42.11016], [-94.60396, 42.11011], [-94.60281, 42.11139], [-94.60142, 42.11437], [-94.6005, 42.11435]]]}}, {"type": "Feature", "properties": {"name": "Brown Bridge Access", "owner": "GREENE COUNTY CONSERVATION", "parcelId": "0523400019"}, "geometry": {"type": "Polygon", "coordinates": [[[-94.53755, 42.0679], [-94.53664, 42.06711], [-94.53754, 42.06712], [-94.53752, 42.06622], [-94.53909, 42.06623], [-94.53856, 42.06825], [-94.53755, 42.0679]]]}}, {"type": "Feature", "properties": {"name": "Spring Lake Park (Conservation Offices)", "owner": "GREENE COUNTY CONSERVATION BD", "parcelId": "0724300002"}, "geometry": {"type": "Polygon", "coordinates": [[[-94.2909, 42.07047], [-94.29085, 42.067], [-94.2957, 42.06707], [-94.29575, 42.07054], [-94.2909, 42.07047]]]}}, {"type": "Feature", "properties": {"name": "Conservation parcel 0724300004", "owner": "GREENE COUNTY CONSERVATION BD", "parcelId": "0724300004"}, "geometry": {"type": "Polygon", "coordinates": [[[-94.29085, 42.067], [-94.2908, 42.06339], [-94.29565, 42.06346], [-94.2957, 42.06707], [-94.29085, 42.067]]]}}, {"type": "Feature", "properties": {"name": "Greene County Conservation Offices \u2014 adjoining parcel (verify)", "owner": "GREENE COUNTY CONSERVATION BD", "parcelId": "0724400001"}, "geometry": {"type": "Polygon", "coordinates": [[[-94.28602, 42.07039], [-94.28597, 42.06692], [-94.29085, 42.067], [-94.2909, 42.07047], [-94.28602, 42.07039]]]}}, {"type": "Feature", "properties": {"name": "Conservation parcel 0724400003", "owner": "GREENE COUNTY CONSERVATION BD", "parcelId": "0724400003"}, "geometry": {"type": "Polygon", "coordinates": [[[-94.28597, 42.06692], [-94.28592, 42.06332], [-94.2908, 42.06339], [-94.29085, 42.067], [-94.28597, 42.06692]]]}}, {"type": "Feature", "properties": {"name": "Conservation parcel 0725200001", "owner": "GREENE COUNTY CONSERVATION BD", "parcelId": "0725200001"}, "geometry": {"type": "Polygon", "coordinates": [[[-94.28592, 42.06332], [-94.28586, 42.05971], [-94.2907, 42.05977], [-94.2908, 42.06339], [-94.28592, 42.06332]]]}}, {"type": "Feature", "properties": {"name": "Conservation parcel 0725200002", "owner": "GREENE COUNTY CONSERVATION BD", "parcelId": "0725200002"}, "geometry": {"type": "Polygon", "coordinates": [[[-94.28586, 42.05971], [-94.28581, 42.05619], [-94.2906, 42.05625], [-94.2907, 42.05977], [-94.28586, 42.05971]]]}}, {"type": "Feature", "properties": {"name": "Conservation parcel 1002200002", "owner": "IOWA STATE CONSERVATION COMM", "parcelId": "1002200002"}, "geometry": {"type": "Polygon", "coordinates": [[[-94.41727, 42.03441], [-94.41702, 42.02961], [-94.42182, 42.02964], [-94.4221, 42.03443], [-94.41727, 42.03441]]]}}, {"type": "Feature", "properties": {"name": "Conservation parcel 1004100008", "owner": "STATE OF IOWA CONSERVATION", "parcelId": "1004100008"}, "geometry": {"type": "Polygon", "coordinates": [[[-94.47324, 42.03427], [-94.47006, 42.03397], [-94.46986, 42.02982], [-94.47464, 42.0298], [-94.47487, 42.03442], [-94.47324, 42.03427]]]}}, {"type": "Feature", "properties": {"name": "Waters Wildlife Area \u2014 adjoining parcel (verify)", "owner": "GREENE COUNTY CONSERVATION", "parcelId": "1101300001"}, "geometry": {"type": "Polygon", "coordinates": [[[-94.29521, 42.02817], [-94.29517, 42.02588], [-94.30002, 42.02582], [-94.30011, 42.02937], [-94.29523, 42.02948], [-94.29521, 42.02817]]]}}, {"type": "Feature", "properties": {"name": "Henderson Park \u2014 adjoining parcel (verify)", "owner": "GREENE COUNTY CONSERVATION BD", "parcelId": "1120100003"}, "geometry": {"type": "Polygon", "coordinates": [[[-94.37492, 41.99004], [-94.377, 41.99004], [-94.37686, 41.9916], [-94.37492, 41.99004]]]}}, {"type": "Feature", "properties": {"name": "Henderson Park \u2014 adjoining parcel (verify)", "owner": "GREENE COUNTY CONSERVATION BD", "parcelId": "1120100006"}, "geometry": {"type": "Polygon", "coordinates": [[[-94.37619, 41.99004], [-94.37492, 41.99004], [-94.37473, 41.98988], [-94.37473, 41.99004], [-94.37447, 41.99004], [-94.37446, 41.98938], [-94.37425, 41.98917], [-94.37231, 41.98876], [-94.3723, 41.98822], [-94.37474, 41.98823], [-94.37471, 41.98641], [-94.37658, 41.98641], [-94.37682, 41.98799], [-94.37709, 41.98799], [-94.3771, 41.98854], [-94.37682, 41.9885], [-94.377, 41.99004], [-94.37619, 41.99004]]]}}, {"type": "Feature", "properties": {"name": "Conservation parcel 1120100010", "owner": "GREENE COUNTY CONSERVATION BD", "parcelId": "1120100010"}, "geometry": {"type": "Polygon", "coordinates": [[[-94.37228, 41.98696], [-94.37227, 41.98641], [-94.37471, 41.98641], [-94.37472, 41.98696], [-94.37228, 41.98696]]]}}, {"type": "Feature", "properties": {"name": "Conservation parcel 1136300005", "owner": "GREENE COUNTY CONSERVATION", "parcelId": "1136300005"}, "geometry": {"type": "Polygon", "coordinates": [[[-94.29873, 41.95374], [-94.29462, 41.95373], [-94.29462, 41.95012], [-94.29595, 41.95013], [-94.29669, 41.95118], [-94.29919, 41.95118], [-94.29916, 41.95374], [-94.29873, 41.95374]]]}}, {"type": "Feature", "properties": {"name": "Conservation parcel 1226300001", "owner": "STATE CONSERVATION", "parcelId": "1226300001"}, "geometry": {"type": "Polygon", "coordinates": [[[-94.20296, 41.97196], [-94.19836, 41.97193], [-94.19834, 41.96831], [-94.20295, 41.96832], [-94.20296, 41.97196]]]}}, {"type": "Feature", "properties": {"name": "Conservation parcel 1226300002", "owner": "STATE CONSERVATION", "parcelId": "1226300002"}, "geometry": {"type": "Polygon", "coordinates": [[[-94.19357, 41.97191], [-94.19356, 41.96829], [-94.19834, 41.96831], [-94.19836, 41.97193], [-94.19357, 41.97191]]]}}, {"type": "Feature", "properties": {"name": "Conservation parcel 1226300003", "owner": "STATE CONSERVATION", "parcelId": "1226300003"}, "geometry": {"type": "Polygon", "coordinates": [[[-94.19834, 41.96831], [-94.19832, 41.96477], [-94.20292, 41.96477], [-94.20295, 41.96832], [-94.19834, 41.96831]]]}}, {"type": "Feature", "properties": {"name": "Conservation parcel 1226300004", "owner": "STATE CONSERVATION", "parcelId": "1226300004"}, "geometry": {"type": "Polygon", "coordinates": [[[-94.19356, 41.96829], [-94.19355, 41.96476], [-94.19832, 41.96477], [-94.19834, 41.96831], [-94.19356, 41.96829]]]}}, {"type": "Feature", "properties": {"name": "Conservation parcel 1235100001", "owner": "STATE CONSERVATION COMMISSION", "parcelId": "1235100001"}, "geometry": {"type": "Polygon", "coordinates": [[[-94.19832, 41.96458], [-94.19832, 41.96105], [-94.20291, 41.96105], [-94.20292, 41.96459], [-94.19832, 41.96458]]]}}, {"type": "Feature", "properties": {"name": "Conservation parcel 1235100003", "owner": "STATE CONSERVATION COMMISSION", "parcelId": "1235100003"}, "geometry": {"type": "Polygon", "coordinates": [[[-94.19832, 41.96105], [-94.19832, 41.95742], [-94.2029, 41.95742], [-94.20291, 41.96105], [-94.19832, 41.96105]]]}}, {"type": "Feature", "properties": {"name": "Squirrel Hollow Wildlife Area \u2014 adjoining parcel (verify)", "owner": "GREENE COUNTY CONSERVATION", "parcelId": "1501100008"}, "geometry": {"type": "MultiPolygon", "coordinates": [[[[-94.28976, 41.94623], [-94.28976, 41.94543], [-94.29, 41.94568], [-94.29, 41.94623], [-94.29013, 41.94623], [-94.29017, 41.94654], [-94.28982, 41.94907], [-94.29011, 41.95012], [-94.28979, 41.95012], [-94.28976, 41.94623]]], [[[-94.29134, 41.95012], [-94.29037, 41.95012], [-94.29012, 41.94952], [-94.29008, 41.9488], [-94.29041, 41.94719], [-94.29038, 41.94623], [-94.29461, 41.9463], [-94.29461, 41.94904], [-94.29521, 41.94905], [-94.29595, 41.95013], [-94.29134, 41.95012]]]]}}, {"type": "Feature", "properties": {"name": "Conservation parcel 1501200001", "owner": "GREENE COUNTY CONSERVATION", "parcelId": "1501200001"}, "geometry": {"type": "Polygon", "coordinates": [[[-94.28507, 41.95011], [-94.285, 41.94736], [-94.28977, 41.94735], [-94.28979, 41.95012], [-94.28507, 41.95011]]]}}, {"type": "Feature", "properties": {"name": "Conservation parcel 1501200002", "owner": "GREENE COUNTY CONSERVATION", "parcelId": "1501200002"}, "geometry": {"type": "Polygon", "coordinates": [[[-94.28499, 41.94629], [-94.28496, 41.94449], [-94.28647, 41.94449], [-94.28732, 41.94474], [-94.28733, 41.94516], [-94.28886, 41.94516], [-94.28976, 41.94543], [-94.28977, 41.94735], [-94.285, 41.94736], [-94.28499, 41.94629]]]}}, {"type": "Feature", "properties": {"name": "Conservation parcel 1602352001", "owner": "GREENE CO CONSERVATION BOARD", "parcelId": "1602352001"}, "geometry": {"type": "Polygon", "coordinates": [[[-94.20295, 41.93892], [-94.19974, 41.93557], [-94.20024, 41.93556], [-94.20299, 41.93849], [-94.20295, 41.93892]]]}}, {"type": "Feature", "properties": {"name": "Conservation parcel 1603100003", "owner": "GREENE CO CONSERVATION BOARD", "parcelId": "1603100003"}, "geometry": {"type": "Polygon", "coordinates": [[[-94.21372, 41.95012], [-94.2127, 41.94906], [-94.2127, 41.94859], [-94.21417, 41.95012], [-94.21372, 41.95012]]]}}, {"type": "Feature", "properties": {"name": "Conservation parcel 1603200004", "owner": "GREENE CO CONSERVATION BOARD", "parcelId": "1603200004"}, "geometry": {"type": "Polygon", "coordinates": [[[-94.21003, 41.94629], [-94.20655, 41.94266], [-94.207, 41.94266], [-94.2127, 41.94859], [-94.2127, 41.94906], [-94.21003, 41.94629]]]}}, {"type": "Feature", "properties": {"name": "Conservation parcel 1603427001", "owner": "GREENE CO CONSERVATION BOARD", "parcelId": "1603427001"}, "geometry": {"type": "Polygon", "coordinates": [[[-94.20655, 41.94266], [-94.20324, 41.93926], [-94.20324, 41.93875], [-94.207, 41.94266], [-94.20655, 41.94266]]]}}, {"type": "Feature", "properties": {"name": "Conservation parcel 1611104002", "owner": "GREENE CO CONSERVATION BOARD", "parcelId": "1611104002"}, "geometry": {"type": "MultiPolygon", "coordinates": [[[[-94.19801, 41.93364], [-94.19349, 41.92903], [-94.19349, 41.92855], [-94.19915, 41.93443], [-94.19866, 41.93443], [-94.19801, 41.93364]]], [[[-94.19957, 41.93539], [-94.19883, 41.93461], [-94.19916, 41.93461], [-94.20007, 41.93538], [-94.19957, 41.93539]]]]}}, {"type": "Feature", "properties": {"name": "Conservation parcel 1611200004", "owner": "GREENE CO CONSERVATION BOARD", "parcelId": "1611200004"}, "geometry": {"type": "Polygon", "coordinates": [[[-94.19277, 41.92827], [-94.19322, 41.92827], [-94.19349, 41.92855], [-94.19349, 41.92903], [-94.19277, 41.92827]]]}}, {"type": "Feature", "properties": {"name": "Conservation parcel 1611400005", "owner": "GREENE CO CONSERVATION BOARD", "parcelId": "1611400005"}, "geometry": {"type": "Polygon", "coordinates": [[[-94.19277, 41.92827], [-94.1859, 41.92108], [-94.18635, 41.92108], [-94.19322, 41.92827], [-94.19277, 41.92827]]]}}, {"type": "Feature", "properties": {"name": "Rippey Railroad Right-of-Way", "owner": "GREENE CO CONSERVATION BOARD", "parcelId": "1613100001"}, "geometry": {"type": "Polygon", "coordinates": [[[-94.17901, 41.9139], [-94.17946, 41.91389], [-94.18375, 41.91838], [-94.18376, 41.91886], [-94.17901, 41.9139]]]}}, {"type": "Feature", "properties": {"name": "Conservation parcel 1613300002", "owner": "GREENE CO CONSERVATION BOARD", "parcelId": "1613300002"}, "geometry": {"type": "Polygon", "coordinates": [[[-94.17557, 41.9103], [-94.17412, 41.90879], [-94.17412, 41.90831], [-94.17946, 41.91389], [-94.17901, 41.9139], [-94.17557, 41.9103]]]}}, {"type": "Feature", "properties": {"name": "Conservation parcel 1613400004", "owner": "GREENE CO CONSERVATION BOARD", "parcelId": "1613400004"}, "geometry": {"type": "Polygon", "coordinates": [[[-94.17221, 41.9068], [-94.17266, 41.90679], [-94.17412, 41.90831], [-94.17412, 41.90879], [-94.17221, 41.9068]]]}}, {"type": "Feature", "properties": {"name": "Conservation parcel 1614200003", "owner": "GREENE CO CONSERVATION BOARD", "parcelId": "1614200003"}, "geometry": {"type": "Polygon", "coordinates": [[[-94.1859, 41.92108], [-94.184, 41.91911], [-94.184, 41.91864], [-94.18634, 41.92108], [-94.1859, 41.92108]]]}}, {"type": "Feature", "properties": {"name": "Conservation parcel 1624200005", "owner": "GREENE CO CONSERVATION BOARD", "parcelId": "1624200005"}, "geometry": {"type": "Polygon", "coordinates": [[[-94.17204, 41.90661], [-94.16524, 41.8995], [-94.16569, 41.8995], [-94.17249, 41.90661], [-94.17204, 41.90661]]]}}, {"type": "Feature", "properties": {"name": "Conservation parcel 1624400003", "owner": "GREENE CO CONSERVATION BOARD", "parcelId": "1624400003"}, "geometry": {"type": "Polygon", "coordinates": [[[-94.16524, 41.8995], [-94.16455, 41.89878], [-94.16455, 41.89831], [-94.16569, 41.8995], [-94.16524, 41.8995]]]}}]}